{
  "norad_id": 54093,
  "name": "STARLINK-5213",
  "history": [
    {
      "epoch": "2026-03-28T17:46:39.544608Z",
      "apogee_km": 540.2857575261633,
      "perigee_km": 539.1902428411349,
      "latitude_deg": 7.171132640514939e-05,
      "longitude_deg": 155.52394606090124,
      "height_km": 540.5650407231574,
      "semi_major_axis_km": 6917.875000183649,
      "eccentricity": 7.918e-05,
      "inclination_deg": 53.2168,
      "raan_deg": 248.3455,
      "arg_perigee_deg": 82.7246,
      "mean_anomaly_deg": 277.3837,
      "mean_motion_rev_day": 15.08841763
    }
  ]
}