{"fetched_at":"2026-03-30T06:02:59Z","count":15439,"tles":[{"name":"STARLINK-5213","line1":"1 54093U 22136AU  26087.74073547  .00001192  00000+0  92956-4 0  9992","line2":"2 54093  53.2168 248.3455 0000791  82.7246 277.3837 15.08841763189867","category":"Starlink"}]}